[{"OBJECT_NAME":"ONEWEB-0083","OBJECT_ID":"2020-020M","EPOCH":"2026-03-09T22:42:56.348064","MEAN_MOTION":13.11416289,"ECCENTRICITY":0.00018773,"INCLINATION":87.887,"RA_OF_ASC_NODE":40.785,"ARG_OF_PERICENTER":84.5696,"MEAN_ANOMALY":275.5646,"EPHEMERIS_TYPE":0,"CLASSIFICATION_TYPE":"U","NORAD_CAT_ID":45435,"ELEMENT_SET_NO":999,"REV_AT_EPOCH":28966,"BSTAR":-0.0015628576,"MEAN_MOTION_DOT":-5.41e-6,"MEAN_MOTION_DDOT":0},{"OBJECT_NAME":"THOR ABLESTAR DEB","OBJECT_ID":"1961-015HL","EPOCH":"2026-03-09T16:33:37.226016","MEAN_MOTION":12.66797435,"ECCENTRICITY":0.0587579,"INCLINATION":67.1604,"RA_OF_ASC_NODE":293.3043,"ARG_OF_PERICENTER":350.3321,"MEAN_ANOMALY":66.0005,"EPHEMERIS_TYPE":0,"CLASSIFICATION_TYPE":"U","NORAD_CAT_ID":659,"ELEMENT_SET_NO":999,"REV_AT_EPOCH":97842,"BSTAR":0.0008657079,"MEAN_MOTION_DOT":2.72e-6,"MEAN_MOTION_DDOT":0}]
